SL-8 R/B                
1 15483U 85006B   26190.02099968  .00000116  00000+0  47311-4 0  9998
2 15483  74.0450  37.8842 0019265 281.8181 238.1093 14.37843035171460
SL-12 R/B(2)            
1 15772U 85042D   26191.01405057  .00000034  00000+0  36618-4 0  9996
2 15772  71.1062 189.2881 0037220 293.7918  75.7945 14.22010269131785
SL-14 R/B               
1 15945U 85069B   26191.59406234  .00000240  00000+0  24265-4 0  9992
2 15945  82.5267 269.3535 0019767 141.6391 218.6236 14.86533246191094
SL-16 R/B               
1 16182U 85097B   26191.13987346 -.00000187  00000+0 -69721-4 0  9993
2 16182  71.0012 242.7563 0005434  61.6528 328.8116 14.16612475104577
SL-14 R/B               
1 16496U 86006B   26191.33500429  .00000304  00000+0  29486-4 0  9990
2 16496  82.5280 144.3305 0075117 225.1886 134.3210 14.86966017167439
COSMOS 1743             
1 16719U 86034A   26191.31211600  .00044608  00000+0  38201-3 0  9996
2 16719  82.5274 304.1058 0005210 192.4255 167.6879 15.69223519199412
SL-14 R/B               
1 16792U 86046B   26191.38899441  .00000297  00000+0  31308-4 0  9990
2 16792  82.4835 324.2512 0023094 178.7399 181.3880 14.85688335144625
SL-14 R/B               
1 16882U 86055B   26191.50669639  .00000259  00000+0  27006-4 0  9996
2 16882  82.5198  11.2049 0017366 287.2688  88.8113 14.85738315137602
AJISAI (EGS)            
1 16908U 86061A   26191.83807353 -.00000102  00000+0 -35524-4 0  9998
2 16908  50.0103  74.6695 0011105 240.7730 242.8151 12.44516678483331
SL-14 R/B               
1 17567U 87024B   26191.64709792  .00000266  00000+0  27437-4 0  9990
2 17567  82.5293 337.1983 0017441 209.3156 150.7084 14.86229611106398
COSMOS 1833             
1 17589U 87027A   26191.82270756  .00000126  00000+0  92790-4 0  9999
2 17589  70.9211  67.1908 0023938  15.7836 344.4026 14.13065191 27719
SL-16 R/B               
1 17590U 87027B   26191.50887469 -.00000185  00000+0 -67982-4 0  9993
2 17590  71.0028  17.6821 0007136 286.8557  73.1784 14.17173452 32746
SL-14 R/B               
1 17912U 87038B   26191.43593952  .00000272  00000+0  28623-4 0  9990
2 17912  82.5008 181.1726 0020670 116.8241 243.5092 14.85459504 97454
COSMOS 1844             
1 17973U 87041A   26191.30123564  .00000235  00000+0  14707-3 0  9991
2 17973  70.8994 135.5520 0031639 202.1792 157.7963 14.14578453 20925
SL-14 R/B               
1 18153U 87055B   26191.12176949  .00000236  00000+0  24292-4 0  9994
2 18153  82.4974 233.6088 0019786 332.7035  27.3139 14.85725163 88113
COSMOS 1867             
1 18187U 87060A   26191.32703573 -.00000075  00000+0  93830-5 0  9995
2 18187  65.0120 323.2532 0017033 282.0522  77.8653 14.31518246 37490
SL-14 R/B               
1 18749U 88001B   26191.19277276  .00000228  00000+0  23503-4 0  9994
2 18749  82.5126  80.1300 0017705 188.3523 171.7402 14.85624864 60216
COSMOS 1933             
1 18958U 88020A   26191.68983878  .00002466  00000+0  11679-3 0  9999
2 18958  82.5136 129.1594 0005726 119.0584 241.1225 15.18871699 68890
SL-3 R/B                
1 19046U 88032B   26191.79651288  .00002319  00000+0  10688-3 0  9996
2 19046  97.5267 174.8172 0026071 160.5395 199.6842 15.21010678 70819
SL-16 R/B               
1 19120U 88039B   26191.37334446 -.00000148  00000+0 -47156-4 0  9995
2 19120  71.0135 169.1303 0020856 157.2540 202.9514 14.19631888975799
COSMOS 1953             
1 19210U 88050A   26191.49583990  .00005303  00000+0  17951-3 0  9996
2 19210  82.5066  34.5222 0011873  55.0488 305.1865 15.30295283 56557
SL-8 R/B                
1 19257U 88053B   26191.59194811  .00000111  00000+0  44406-4 0  9999
2 19257  74.0461 245.9149 0019578  32.9366 123.3077 14.38976700994270
COSMOS 1975             
1 19573U 88093A   26191.70695888  .00004312  00000+0  14872-3 0  9997
2 19573  82.5192 354.0365 0012570  96.2487 264.0186 15.29628088 38200
SL-14 R/B               
1 19574U 88093B   26191.79370884  .00000209  00000+0  21201-4 0  9999
2 19574  82.5317 286.4836 0020404 355.1786 154.9390 14.85758395 19293
SL-16 R/B               
1 19650U 88102B   26191.17329438 -.00000256  00000+0 -10491-3 0  9998
2 19650  70.9987 253.7742 0014575 193.3810 166.6929 14.16168152944236
INTERCOSMOS 24          
1 20261U 89080A   26191.28620535  .00000331  00000+0  92731-4 0  9998
2 20261  82.6046  24.6107 1187458   8.3390 353.5638 12.59690178682238
SL-14 R/B               
1 20262U 89080C   26191.68228660  .00000047  00000+0  13567-4 0  9990
2 20262  82.5939  94.2123 1228539 263.6192  82.3924 12.50577922675523
DELTA 1 R/B             
1 20323U 89089B   26190.98021731  .00000192  00000+0  55742-4 0  9991
2 20323  97.0634  18.8908 0070622  96.0860 264.8391 14.50745796913465
ARIANE 40 R/B           
1 20443U 90005H   26191.11473366  .00000131  00000+0  54981-4 0  9992
2 20443  98.2947 248.0166 0009914 189.0779 171.0232 14.39939292910428
DELTA 2 R/B(1)          
1 20453U 90008B   26191.00811265  .00094257  00000+0  59122-3 0  9991
2 20453  35.5999  82.5578 0061393 327.2040  32.4898 15.72802134945297
